IRIDIUM 57 [-]          
1 25273U 98019B   23266.46480645  .00000647  00000+0  22081-3 0  9994
2 25273  86.3955  50.1902 0002086  92.1156 268.0279 14.34903851334028
IRIDIUM 63 [-]          
1 25286U 98021B   23266.58576935  .00000618  00000+0  20843-3 0  9994
2 25286  86.4040 347.1092 0002237  97.7595 262.3855 14.35414103333061
IRIDIUM 69 [-]          
1 25319U 98026A   23266.32105071  .00000977  00000+0  30675-3 0  9999
2 25319  86.4048   2.3676 0001343  18.0942 342.0305 14.39571755331978
IRIDIUM 71 [-]          
1 25320U 98026B   23266.31193415  .00000786  00000+0  24402-3 0  9998
2 25320  86.4040 357.2119 0003293  53.7780 306.3723 14.39911685332482
IRIDIUM 73 [-]          
1 25344U 98032C   23266.59646610  .00000725  00000+0  18193-3 0  9994
2 25344  86.4415 314.9768 0001935  76.0808 284.0612 14.50028699338846
IRIDIUM 82 [-]          
1 25467U 98051A   23266.79385775  .00017475  00000+0  10359-2 0  9990
2 25467  86.3932  51.4060 0149996 116.9853 244.6788 15.02174428328246
IRIDIUM 2 [-]           
1 25527U 98066A   23266.56895323  .00033203  00000+0  82738-3 0  9991
2 25527  85.5173 111.7504 0003436 285.9973  74.0901 15.40074021366280
